[{"OBJECT_NAME":"JILIN-1 GAOFEN 3G","OBJECT_ID":"2020-065F","EPOCH":"2026-03-09T21:50:59.195040","MEAN_MOTION":15.57918235,"ECCENTRICITY":0.00133019,"INCLINATION":97.2459,"RA_OF_ASC_NODE":123.1669,"ARG_OF_PERICENTER":66.7288,"MEAN_ANOMALY":293.5367,"EPHEMERIS_TYPE":0,"CLASSIFICATION_TYPE":"U","NORAD_CAT_ID":46459,"ELEMENT_SET_NO":999,"REV_AT_EPOCH":30442,"BSTAR":0.00076250561,"MEAN_MOTION_DOT":0.00057372,"MEAN_MOTION_DDOT":0},{"OBJECT_NAME":"STARLINK-1995","OBJECT_ID":"2021-009AU","EPOCH":"2026-03-09T22:00:01.999584","MEAN_MOTION":15.56337819,"ECCENTRICITY":0.00072287,"INCLINATION":53.0479,"RA_OF_ASC_NODE":18.2943,"ARG_OF_PERICENTER":82.4269,"MEAN_ANOMALY":357.8664,"EPHEMERIS_TYPE":0,"CLASSIFICATION_TYPE":"U","NORAD_CAT_ID":47590,"ELEMENT_SET_NO":999,"REV_AT_EPOCH":586,"BSTAR":0.0018767975,"MEAN_MOTION_DOT":0.00136547,"MEAN_MOTION_DDOT":0}]
